CTC1_L_00466013-03
1 10062U 22257YN  26075.70035880  .00000000  00000+0  00000-0 0  9997
2 10062  45.0000 144.0000 0000000   0.0000 259.2000 13.98210060    18
CTC1_L_00466013-04
1 10063U 24298DM  26075.70035880  .00000000  00000+0  00000-0 0  9995
2 10063  45.0000 144.0000 0000000   0.0000 331.2000 13.98210060    10
CTC1_L_00466013-05
1 10064U 26704DZ  26075.70035880  .00000000  00000+0  00000-0 0  9990
2 10064  45.0000 144.0000 0000000   0.0000  43.2000 13.98210060    11
CTC1_L_00466014-01
1 10065U 22188YF  26075.70035880  .00000000  00000+0  00000-0 0  9993
2 10065  45.0000 156.0000 0000000   0.0000 124.8000 13.98210060    11
CTC1_L_00466014-02
1 10066U 23637UW  26075.70035880  .00000000  00000+0  00000-0 0  9994
2 10066  45.0000 156.0000 0000000   0.0000 196.8000 13.98210060    11
CTC1_L_00466014-03
1 10067U 26402DX  26075.70035880  .00000000  00000+0  00000-0 0  9998
2 10067  45.0000 156.0000 0000000   0.0000 268.8000 13.98210060    12
CTC1_L_00466014-04
1 10068U 24441DE  26075.70035880  .00000000  00000+0  00000-0 0  9990
2 10068  45.0000 156.0000 0000000   0.0000 340.8000 13.98210060    14
CTC1_L_00466014-05
1 10069U 25305AK  26075.70035880  .00000000  00000+0  00000-0 0  9991
2 10069  45.0000 156.0000 0000000   0.0000  52.8000 13.98210060    15
CTC1_L_00466015-01
1 10070U 23715QG  26075.70035880  .00000000  00000+0  00000-0 0  9996
2 10070  45.0000 168.0000 0000000   0.0000 134.4000 13.98210060    17
CTC1_L_00466015-02
1 10071U 25998VG  26075.70035880  .00000000  00000+0  00000-0 0  9992
2 10071  45.0000 168.0000 0000000   0.0000 206.4000 13.98210060    18
CTC1_L_00466015-03
1 10072U 23094GC  26075.70035880  .00000000  00000+0  00000-0 0  9998
2 10072  45.0000 168.0000 0000000   0.0000 278.4000 13.98210060    18
CTC1_L_00466015-04
1 10073U 25038NT  26075.70035880  .00000000  00000+0  00000-0 0  9999
2 10073  45.0000 168.0000 0000000   0.0000 350.4000 13.98210060    10
CTC1_L_00466015-05
1 10074U 24582YB  26075.70035880  .00000000  00000+0  00000-0 0  9993
2 10074  45.0000 168.0000 0000000   0.0000  62.4000 13.98210060    11
CTC1_L_00466016-01
1 10075U 25910JE  26075.70035880  .00000000  00000+0  00000-0 0  9990
2 10075  45.0000 180.0000 0000000   0.0000 144.0000 13.98210060    13
CTC1_L_00466016-02
1 10076U 23185TX  26075.70035880  .00000000  00000+0  00000-0 0  9993
2 10076  45.0000 180.0000 0000000   0.0000 216.0000 13.98210060    14
CTC1_L_00466016-03
1 10077U 26436AZ  26075.70035880  .00000000  00000+0  00000-0 0  9996
2 10077  45.0000 180.0000 0000000   0.0000 288.0000 13.98210060    14
CTC1_L_00466016-04
1 10078U 26605OL  26075.70035880  .00000000  00000+0  00000-0 0  9995
2 10078  45.0000 180.0000 0000000   0.0000   0.0000 13.98210060    17
CTC1_L_00466016-05
1 10079U 23129IA  26075.70035880  .00000000  00000+0  00000-0 0  9994
2 10079  45.0000 180.0000 0000000   0.0000  72.0000 13.98210060    17
CTC1_L_00466017-01
1 10080U 24111LK  26075.70035880  .00000000  00000+0  00000-0 0  9998
2 10080  45.0000 192.0000 0000000   0.0000 153.6000 13.98210060    18
CTC1_L_00466017-02
1 10081U 25739WI  26075.70035880  .00000000  00000+0  00000-0 0  9996
2 10081  45.0000 192.0000 0000000   0.0000 225.6000 13.98210060    19
CTC1_L_00466017-03
1 10082U 25179YS  26075.70035880  .00000000  00000+0  00000-0 0  9995
2 10082  45.0000 192.0000 0000000   0.0000 297.6000 13.98210060    19
CTC1_L_00466017-04
1 10083U 23887JQ  26075.70035880  .00000000  00000+0  00000-0 0  9990
2 10083  45.0000 192.0000 0000000   0.0000   9.6000 13.98210060    11
CTC1_L_00466017-05
1 10084U 26480JH  26075.70035880  .00000000  00000+0  00000-0 0  9993
2 10084  45.0000 192.0000 0000000   0.0000  81.6000 13.98210060    12
CTC1_L_00466018-01
1 10085U 25666TO  26075.70035880  .00000000  00000+0  00000-0 0  9999
2 10085  45.0000 204.0000 0000000   0.0000 163.2000 13.98210060    14
CTC1_L_00466018-02
1 10086U 24565HH  26075.70035880  .00000000  00000+0  00000-0 0  9997
2 10086  45.0000 204.0000 0000000   0.0000 235.2000 13.98210060    15
CTC1_L_00466018-03
1 10087U 23293JI  26075.70035880  .00000000  00000+0  00000-0 0  9995
2 10087  45.0000 204.0000 0000000   0.0000 307.2000 13.98210060    16
CTC1_L_00466018-04
1 10088U 24490GW  26075.70035880  .00000000  00000+0  00000-0 0  9996
2 10088  45.0000 204.0000 0000000   0.0000  19.2000 13.98210060    17
CTC1_L_00466018-05
1 10089U 23982JH  26075.70035880  .00000000  00000+0  00000-0 0  9992
2 10089  45.0000 204.0000 0000000   0.0000  91.2000 13.98210060    18
CTC1_L_00466019-01
1 10090U 24779TC  26075.70035880  .00000000  00000+0  00000-0 0  9999
2 10090  45.0000 216.0000 0000000   0.0000 172.8000 13.98210060    19
CTC1_L_00466019-02
1 10091U 24791WN  26075.70035880  .00000000  00000+0  00000-0 0  9994
2 10091  45.0000 216.0000 0000000   0.0000 244.8000 13.98210060    10
CTC1_L_00466019-03
1 10092U 22647XA  26075.70035880  .00000000  00000+0  00000-0 0  9993
2 10092  45.0000 216.0000 0000000   0.0000 316.8000 13.98210060    11
CTC1_L_00466019-04
1 10093U 23530ZK  26075.70035880  .00000000  00000+0  00000-0 0  9996
2 10093  45.0000 216.0000 0000000   0.0000  28.8000 13.98210060    12
CTC1_L_00466019-05
1 10094U 26118JY  26075.70035880  .00000000  00000+0  00000-0 0  9992
2 10094  45.0000 216.0000 0000000   0.0000 100.8000 13.98210060    14
CTC1_L_00466020-01
1 10095U 25093TG  26075.70035880  .00000000  00000+0  00000-0 0  9994
2 10095  45.0000 228.0000 0000000   0.0000 182.4000 13.98210060    14
CTC1_L_00466020-02
1 10096U 25038DL  26075.70035880  .00000000  00000+0  00000-0 0  9994
2 10096  45.0000 228.0000 0000000   0.0000 254.4000 13.98210060    15
CTC1_L_00466020-03
1 10097U 24279ZQ  26075.70035880  .00000000  00000+0  00000-0 0  9991
2 10097  45.0000 228.0000 0000000   0.0000 326.4000 13.98210060    16
CTC1_L_00466020-04
1 10098U 24804GO  26075.70035880  .00000000  00000+0  00000-0 0  9996
2 10098  45.0000 228.0000 0000000   0.0000  38.4000 13.98210060    17
CTC1_L_00466020-05
1 10099U 26930SB  26075.70035880  .00000000  00000+0  00000-0 0  9999
2 10099  45.0000 228.0000 0000000   0.0000 110.4000 13.98210060    19
CTC1_L_00466021-01
1 10100U 22806AQ  26075.70035880  .00000000  00000+0  00000-0 0  9990
2 10100  45.0000 240.0000 0000000   0.0000 192.0000 13.98210060    12
CTC1_L_00466021-02
1 10101U 22086AV  26075.70035880  .00000000  00000+0  00000-0 0  9991
2 10101  45.0000 240.0000 0000000   0.0000 264.0000 13.98210060    13
CTC1_L_00466021-03
1 10102U 22685SF  26075.70035880  .00000000  00000+0  00000-0 0  9997
2 10102  45.0000 240.0000 0000000   0.0000 336.0000 13.98210060    14
CTC1_L_00466021-04
1 10103U 25358XB  26075.70035880  .00000000  00000+0  00000-0 0  9998
2 10103  45.0000 240.0000 0000000   0.0000  48.0000 13.98210060    15
CTC1_L_00466021-05
1 10104U 23816DX  26075.70035880  .00000000  00000+0  00000-0 0  9996
2 10104  45.0000 240.0000 0000000   0.0000 120.0000 13.98210060    17
CTC1_L_00466022-01
1 10105U 25817F   26075.70035880  .00000000  00000+0  00000-0 0  9990
2 10105  45.0000 252.0000 0000000   0.0000 201.6000 13.98210060    17
CTC1_L_00466022-02
1 10106U 26730RI  26075.70035880  .00000000  00000+0  00000-0 0  9996
2 10106  45.0000 252.0000 0000000   0.0000 273.6000 13.98210060    17
CTC1_L_00466022-03
1 10107U 25773XW  26075.70035880  .00000000  00000+0  00000-0 0  9993
2 10107  45.0000 252.0000 0000000   0.0000 345.6000 13.98210060    18
CTC1_L_00466022-04
1 10108U 26552OS  26075.70035880  .00000000  00000+0  00000-0 0  9990
2 10108  45.0000 252.0000 0000000   0.0000  57.6000 13.98210060    19
CTC1_L_00466022-05
1 10109U 23376AR  26075.70035880  .00000000  00000+0  00000-0 0  9992
2 10109  45.0000 252.0000 0000000   0.0000 129.6000 13.98210060    10
CTC1_L_00466023-01
1 10110U 25467RY  26075.70035880  .00000000  00000+0  00000-0 0  9997
2 10110  45.0000 264.0000 0000000   0.0000 211.2000 13.98210060    13
CTC1_L_00466023-02
1 10111U 22790CJ  26075.70035880  .00000000  00000+0  00000-0 0  9994
2 10111  45.0000 264.0000 0000000   0.0000 283.2000 13.98210060    13
CTC1_L_00466023-03
1 10112U 26512RZ  26075.70035880  .00000000  00000+0  00000-0 0  9991
2 10112  45.0000 264.0000 0000000   0.0000 355.2000 13.98210060    14
CTC1_L_00466023-04
1 10113U 26462JG  26075.70035880  .00000000  00000+0  00000-0 0  9996
2 10113  45.0000 264.0000 0000000   0.0000  67.2000 13.98210060    15
CTC1_L_00466023-05
1 10114U 24833MH  26075.70035880  .00000000  00000+0  00000-0 0  9997
2 10114  45.0000 264.0000 0000000   0.0000 139.2000 13.98210060    16
CTC1_L_00466024-01
1 10115U 23320CJ  26075.70035880  .00000000  00000+0  00000-0 0  9998
2 10115  45.0000 276.0000 0000000   0.0000 220.8000 13.98210060    17
CTC1_L_00466024-02
1 10116U 24461TA  26075.70035880  .00000000  00000+0  00000-0 0  9996
2 10116  45.0000 276.0000 0000000   0.0000 292.8000 13.98210060    17
CTC1_L_00466024-03
1 10117U 24814IF  26075.70035880  .00000000  00000+0  00000-0 0  9999
2 10117  45.0000 276.0000 0000000   0.0000   4.8000 13.98210060    19
CTC1_L_00466024-04
1 10118U 22051GC  26075.70035880  .00000000  00000+0  00000-0 0  9991
2 10118  45.0000 276.0000 0000000   0.0000  76.8000 13.98210060    19
CTC1_L_00466024-05
1 10119U 22320B   26075.70035880  .00000000  00000+0  00000-0 0  9991
2 10119  45.0000 276.0000 0000000   0.0000 148.8000 13.98210060    10
CTC1_L_00466025-01
1 10120U 23556SD  26075.70035880  .00000000  00000+0  00000-0 0  9995
2 10120  45.0000 288.0000 0000000   0.0000 230.4000 13.98210060    13
CTC1_L_00466025-02
1 10121U 24053OJ  26075.70035880  .00000000  00000+0  00000-0 0  9999
2 10121  45.0000 288.0000 0000000   0.0000 302.4000 13.98210060    14
CTC1_L_00466025-03
1 10122U 25364SW  26075.70035880  .00000000  00000+0  00000-0 0  9996
2 10122  45.0000 288.0000 0000000   0.0000  14.4000 13.98210060    15
CTC1_L_00466025-04
1 10123U 22958EM  26075.70035880  .00000000  00000+0  00000-0 0  9993
2 10123  45.0000 288.0000 0000000   0.0000  86.4000 13.98210060    15
